{"type": "FeatureCollection", "features": [ {"type": "Feature", "properties": {"norad_id": 66875, "name": "STARLINK-36053", "group": "last-30-days", "lat": 25.534160305518313, "lon": -85.03449241320276, "alt_km": 288.44497352518465, "timestamp": "2025-12-12T03:50:51.178995+00:00", "meta": {"OBJECT_NAME": "STARLINK-36053", "OBJECT_ID": "2025-281AD", "EPOCH": "2025-12-10T18:00:02.000160", "MEAN_MOTION": 15.97277493, "ECCENTRICITY": 0.0001692, "INCLINATION": 43.0017, "RA_OF_ASC_NODE": 134.6244, "ARG_OF_PERICENTER": 274.4156, "MEAN_ANOMALY": 35.2421, "EPHEMERIS_TYPE": 0, "CLASSIFICATION_TYPE": "U", "NORAD_CAT_ID": 66875, "ELEMENT_SET_NO": 999, "REV_AT_EPOCH": 242, "BSTAR": -0.0027453, "MEAN_MOTION_DOT": -0.01252507, "MEAN_MOTION_DDOT": 0.0004807}, "tle": {"line1": "1 66875U 25281AD  25344.75002315 -.01252507  48070-3 -27453-2 0  9990", "line2": "2 66875  43.0017 134.6244 0001692 274.4156  35.2421 15.97277493  2429"}}, "geometry": {"type": "Point", "coordinates": [-85.03449241320276, 25.534160305518313]}}, {"type": "Feature", "properties": {"norad_id": 66876, "name": "STARLINK-35702", "group": "last-30-days", "lat": 28.26793972223923, "lon": -89.42400927389768, "alt_km": 288.492511248176, "timestamp": "2025-12-12T03:50:51.179005+00:00", "meta": {"OBJECT_NAME": "STARLINK-35702", "OBJECT_ID": "2025-281AE", "EPOCH": "2025-12-10T18:00:02.000160", "MEAN_MOTION": 15.97131878, "ECCENTRICITY": 0.0001742, "INCLINATION": 43.002, "RA_OF_ASC_NODE": 134.6356, "ARG_OF_PERICENTER": 276.3063, "MEAN_ANOMALY": 29.2605, "EPHEMERIS_TYPE": 0, "CLASSIFICATION_TYPE": "U", "NORAD_CAT_ID": 66876, "ELEMENT_SET_NO": 999, "REV_AT_EPOCH": 247, "BSTAR": -0.0027497, "MEAN_MOTION_DOT": -0.01244535, "MEAN_MOTION_DDOT": 0.00047441}, "tle": {"line1": "1 66876U 25281AE  25344.75002315 -.01244535  47441-3 -27497-2 0  9992", "line2": "2 66876  43.0020 134.6356 0001742 276.3063  29.2605 15.97131878  2470"}}, "geometry": {"type": "Point", "coordinates": [-89.42400927389768, 28.26793972223923]}}, {"type": "Feature", "properties": {"norad_id": 66877, "name": "ZQ-3 R/B", "group": "last-30-days", "lat": 27.10138553151012, "lon": -139.56803322111853, "alt_km": 487.00713541417826, "timestamp": "2025-12-12T03:50:51.179016+00:00", "meta": {"OBJECT_NAME": "ZQ-3 R/B", "OBJECT_ID": "2025-282A", "EPOCH": "2025-12-11T12:17:10.023648", "MEAN_MOTION": 14.55777635, "ECCENTRICITY": 0.07945377, "INCLINATION": 56.9524, "RA_OF_ASC_NODE": 62.3657, "ARG_OF_PERICENTER": 217.8291, "MEAN_ANOMALY": 136.4277, "EPHEMERIS_TYPE": 0, "CLASSIFICATION_TYPE": "U", "NORAD_CAT_ID": 66877, "ELEMENT_SET_NO": 999, "REV_AT_EPOCH": 121, "BSTAR": 0.00026236173, "MEAN_MOTION_DOT": 0.01286835, "MEAN_MOTION_DDOT": 7.412602e-06}, "tle": {"line1": "1 66877U 25282A   25345.51192157  .01286835  74126-5  26236-3 0  9993", "line2": "2 66877  56.9524  62.3657 0794537 217.8291 136.4277 14.55777635  1215"}}, "geometry": {"type": "Point", "coordinates": [-139.56803322111853, 27.10138553151012]}}, {"type": "Feature", "properties": {"norad_id": 66906, "name": "1998-067XS", "group": "last-30-days", "lat": 43.735393612351096, "lon": -165.41577618264296, "alt_km": 411.1014947235599, "timestamp": "2025-12-12T03:50:51.179028+00:00", "meta": {"OBJECT_NAME": "1998-067XS", "OBJECT_ID": "1998-067XS", "EPOCH": "2025-12-11T04:22:42.253536", "MEAN_MOTION": 15.50439588, "ECCENTRICITY": 0.00037466, "INCLINATION": 51.6302, "RA_OF_ASC_NODE": 150.1407, "ARG_OF_PERICENTER": 195.2111, "MEAN_ANOMALY": 164.8766, "EPHEMERIS_TYPE": 0, "CLASSIFICATION_TYPE": "U", "NORAD_CAT_ID": 66906, "ELEMENT_SET_NO": 999, "REV_AT_EPOCH": 137, "BSTAR": 0.00067409178, "MEAN_MOTION_DOT": 0.00038814, "MEAN_MOTION_DDOT": 0}, "tle": {"line1": "1 66906U 98067XS  25345.18243349  .00038814  00000+0  67409-3 0  9992", "line2": "2 66906  51.6302 150.1407 0003746 195.2111 164.8766 15.50439588  1371"}}, "geometry": {"type": "Point", "coordinates": [-165.41577618264296, 43.735393612351096]}}, {"type": "Feature", "properties": {"norad_id": 66907, "name": "1998-067XT", "group": "last-30-days", "lat": 49.231037778368105, "lon": -147.9781686585692, "alt_km": 408.83961621929575, "timestamp": "2025-12-12T03:50:51.179038+00:00", "meta": {"OBJECT_NAME": "1998-067XT", "OBJECT_ID": "1998-067XT", "EPOCH": "2025-12-09T12:07:37.114752", "MEAN_MOTION": 15.50864429, "ECCENTRICITY": 0.00048036, "INCLINATION": 51.6307, "RA_OF_ASC_NODE": 158.4423, "ARG_OF_PERICENTER": 208.5081, "MEAN_ANOMALY": 151.5646, "EPHEMERIS_TYPE": 0, "CLASSIFICATION_TYPE": "U", "NORAD_CAT_ID": 66907, "ELEMENT_SET_NO": 999, "REV_AT_EPOCH": 111, "BSTAR": 0.0012921241, "MEAN_MOTION_DOT": 0.00076342, "MEAN_MOTION_DDOT": 0}, "tle": {"line1": "1 66907U 98067XT  25343.50529068  .00076342  00000+0  12921-2 0  9998", "line2": "2 66907  51.6307 158.4423 0004803 208.5081 151.5646 15.50864429  1113"}}, "geometry": {"type": "Point", "coordinates": [-147.9781686585692, 49.231037778368105]}}, {"type": "Feature", "properties": {"norad_id": 66908, "name": "1998-067XU", "group": "last-30-days", "lat": 49.7742593996696, "lon": -145.23822198456415, "alt_km": 408.4218557815293, "timestamp": "2025-12-12T03:50:51.179048+00:00", "meta": {"OBJECT_NAME": "1998-067XU", "OBJECT_ID": "1998-067XU", "EPOCH": "2025-12-10T15:57:23.331168", "MEAN_MOTION": 15.51115637, "ECCENTRICITY": 0.00048129, "INCLINATION": 51.6304, "RA_OF_ASC_NODE": 152.6848, "ARG_OF_PERICENTER": 213.5482, "MEAN_ANOMALY": 146.5203, "EPHEMERIS_TYPE": 0, "CLASSIFICATION_TYPE": "U", "NORAD_CAT_ID": 66908, "ELEMENT_SET_NO": 999, "REV_AT_EPOCH": 129, "BSTAR": 0.0014713865, "MEAN_MOTION_DOT": 0.00087912, "MEAN_MOTION_DDOT": 0}, "tle": {"line1": "1 66908U 98067XU  25344.66485337  .00087912  00000+0  14714-2 0  9994", "line2": "2 66908  51.6304 152.6848 0004812 213.5482 146.5203 15.51115637  1292"}}, "geometry": {"type": "Point", "coordinates": [-145.23822198456415, 49.7742593996696]}}, {"type": "Feature", "properties": {"norad_id": 66909, "name": "SILVERSAT", "group": "last-30-days", "lat": 50.266599063603834, "lon": -142.34288837272578, "alt_km": 407.93521104548927, "timestamp": "2025-12-12T03:50:51.179058+00:00", "meta": {"OBJECT_NAME": "SILVERSAT", "OBJECT_ID": "1998-067XV", "EPOCH": "2025-12-11T15:08:30.108192", "MEAN_MOTION": 15.5141128, "ECCENTRICITY": 0.00045448, "INCLINATION": 51.6302, "RA_OF_ASC_NODE": 147.8859, "ARG_OF_PERICENTER": 221.0614, "MEAN_ANOMALY": 139.0034, "EPHEMERIS_TYPE": 0, "CLASSIFICATION_TYPE": "U", "NORAD_CAT_ID": 66909, "ELEMENT_SET_NO": 999, "REV_AT_EPOCH": 144, "BSTAR": 0.0013283829, "MEAN_MOTION_DOT": 0.00080084, "MEAN_MOTION_DDOT": 0}, "tle": {"line1": "1 66909U 98067XV  25345.63090403  .00080084  00000+0  13284-2 0  9993", "line2": "2 66909  51.6302 147.8859 0004544 221.0614 139.0034 15.51411280  1441"}}, "geometry": {"type": "Point", "coordinates": [-142.34288837272578, 50.266599063603834]}}, {"type": "Feature", "properties": {"norad_id": 66910, "name": "1998-067XW", "group": "last-30-days", "lat": 51.50911324223252, "lon": -129.64749212582177, "alt_km": 406.3976332977945, "timestamp": "2025-12-12T03:50:51.179068+00:00", "meta": {"OBJECT_NAME": "1998-067XW", "OBJECT_ID": "1998-067XW", "EPOCH": "2025-12-11T12:00:59.894208", "MEAN_MOTION": 15.51542196, "ECCENTRICITY": 0.00053507, "INCLINATION": 51.6307, "RA_OF_ASC_NODE": 148.5174, "ARG_OF_PERICENTER": 201.355, "MEAN_ANOMALY": 158.7217, "EPHEMERIS_TYPE": 0, "CLASSIFICATION_TYPE": "U", "NORAD_CAT_ID": 66910, "ELEMENT_SET_NO": 999, "REV_AT_EPOCH": 142, "BSTAR": 0.0016174677, "MEAN_MOTION_DOT": 0.00098314, "MEAN_MOTION_DDOT": 0}, "tle": {"line1": "1 66910U 98067XW  25345.50069322  .00098314  00000+0  16175-2 0  9994", "line2": "2 66910  51.6307 148.5174 0005350 201.3550 158.7217 15.51542196  1422"}}, "geometry": {"type": "Point", "coordinates": [-129.64749212582177, 51.50911324223252]}}, {"type": "Feature", "properties": {"norad_id": 66911, "name": "1998-067XX", "group": "last-30-days", "lat": 51.60864058522483, "lon": -124.21970173851976, "alt_km": 405.6614216986027, "timestamp": "2025-12-12T03:50:51.179078+00:00", "meta": {"OBJECT_NAME": "1998-067XX", "OBJECT_ID": "1998-067XX", "EPOCH": "2025-12-11T04:16:32.481408", "MEAN_MOTION": 15.5166419, "ECCENTRICITY": 0.00051917, "INCLINATION": 51.6299, "RA_OF_ASC_NODE": 150.1129, "ARG_OF_PERICENTER": 201.0739, "MEAN_ANOMALY": 159.0038, "EPHEMERIS_TYPE": 0, "CLASSIFICATION_TYPE": "U", "NORAD_CAT_ID": 66911, "ELEMENT_SET_NO": 999, "REV_AT_EPOCH": 136, "BSTAR": 0.0016096113, "MEAN_MOTION_DOT": 0.00098261, "MEAN_MOTION_DDOT": 0}, "tle": {"line1": "1 66911U 98067XX  25345.17815372  .00098261  00000+0  16096-2 0  9995", "line2": "2 66911  51.6299 150.1129 0005191 201.0739 159.0038 15.51664190  1368"}}, "geometry": {"type": "Point", "coordinates": [-124.21970173851976, 51.60864058522483]}}, {"type": "Feature", "properties": {"norad_id": 66912, "name": "1998-067XY", "group": "last-30-days", "lat": 47.67555148585802, "lon": -154.2703028240727, "alt_km": 409.8363772170669, "timestamp": "2025-12-12T03:50:51.179088+00:00", "meta": {"OBJECT_NAME": "1998-067XY", "OBJECT_ID": "1998-067XY", "EPOCH": "2025-12-11T12:04:50.239200", "MEAN_MOTION": 15.50956901, "ECCENTRICITY": 0.0004664, "INCLINATION": 51.6302, "RA_OF_ASC_NODE": 148.5351, "ARG_OF_PERICENTER": 216.8191, "MEAN_ANOMALY": 143.2479, "EPHEMERIS_TYPE": 0, "CLASSIFICATION_TYPE": "U", "NORAD_CAT_ID": 66912, "ELEMENT_SET_NO": 999, "REV_AT_EPOCH": 141, "BSTAR": 0.0010602588, "MEAN_MOTION_DOT": 0.00062656, "MEAN_MOTION_DDOT": 0}, "tle": {"line1": "1 66912U 98067XY  25345.50335925  .00062656  00000+0  10603-2 0  9991", "line2": "2 66912  51.6302 148.5351 0004664 216.8191 143.2479 15.50956901  1415"}}, "geometry": {"type": "Point", "coordinates": [-154.2703028240727, 47.67555148585802]}}]}